[
  {
    "satelliteId": 48274,
    "name": "CSS",
    "date": "2025-03-25T03:10:03+00:00",
    "line1": "1 48274U 21035A   25084.13198722  .00057788  00000+0  63946-3 0  9993",
    "line2": "2 48274  41.4650 172.4670 0005007  86.0324 274.1087 15.62102426223015"
  },
  {
    "satelliteId": 48274,
    "name": "CSS",
    "date": "2025-03-24T11:49:24+00:00",
    "line1": "1 48274U 21035A   25083.49264314  .00055957  00000+0  62148-3 0  9991",
    "line2": "2 48274  41.4650 176.3643 0004915  81.4055 278.7341 15.62019518222915"
  },
  {
    "satelliteId": 48274,
    "name": "CSS",
    "date": "2025-03-23T23:32:50+00:00",
    "line1": "1 48274U 21035A   25082.98114545  .00055823  00000+0  62134-3 0  9991",
    "line2": "2 48274  41.4649 179.4840 0004943  76.5682 283.5708 15.61963968222836"
  },
  {
    "satelliteId": 48274,
    "name": "CSS",
    "date": "2025-03-23T05:07:57+00:00",
    "line1": "1 48274U 21035A   25082.21386296  .00064432  00000+0  71818-3 0  9996",
    "line2": "2 48274  41.4648 184.1613 0004951  69.0965 291.0403 15.61878892222710"
  },
  {
    "satelliteId": 48274,
    "name": "CSS",
    "date": "2025-03-22T13:47:10+00:00",
    "line1": "1 48274U 21035A   25081.57442513  .00063908  00000+0  71496-3 0  9998",
    "line2": "2 48274  41.4644 188.0576 0005048  64.9711 295.1652 15.61786574222613"
  },
  {
    "satelliteId": 48274,
    "name": "CSS",
    "date": "2025-03-22T04:34:40+00:00",
    "line1": "1 48274U 21035A   25081.19074515  .00068955  00000+0  77218-3 0  9994",
    "line2": "2 48274  41.4645 190.3970 0005095  61.4638 298.6714 15.61734733222550"
  },
  {
    "satelliteId": 48274,
    "name": "CSS",
    "date": "2025-03-21T08:37:31+00:00",
    "line1": "1 48274U 21035A   25080.35939225  .00048292  00000+0  54566-3 0  9992",
    "line2": "2 48274  41.4648 195.4631 0005025  52.9654 307.1644 15.61624674222425"
  },
  {
    "satelliteId": 48274,
    "name": "CSS",
    "date": "2025-03-20T08:04:00+00:00",
    "line1": "1 48274U 21035A   25079.33612034  .00054061  00000+0  61244-3 0  9996",
    "line2": "2 48274  41.4653 201.6984 0005028  45.3704 314.7544 15.61519420222264"
  },
  {
    "satelliteId": 48274,
    "name": "CSS",
    "date": "2025-03-19T13:38:48+00:00",
    "line1": "1 48274U 21035A   25078.56861757  .00060900  00000+0  69126-3 0  9994",
    "line2": "2 48274  41.4658 206.3741 0005184  39.1805 320.9408 15.61427880222141"
  },
  {
    "satelliteId": 48274,
    "name": "CSS",
    "date": "2025-03-19T01:21:58+00:00",
    "line1": "1 48274U 21035A   25078.05692345  .00053567  00000+0  61062-3 0  9995",
    "line2": "2 48274  41.4663 209.4890 0005022  38.3069 321.8126 15.61362254222061"
  },
  {
    "satelliteId": 48274,
    "name": "CSS",
    "date": "2025-03-18T10:00:52+00:00",
    "line1": "1 48274U 21035A   25077.41727797  .00036420  00000+0  41850-3 0  9996",
    "line2": "2 48274  41.4649 213.3853 0005340  41.4486 318.6757 15.61285326221965"
  },
  {
    "satelliteId": 48274,
    "name": "CSS",
    "date": "2025-03-18T02:20:19+00:00",
    "line1": "1 48274U 21035A   25077.09744442  .00026551  00000+0  30679-3 0  9997",
    "line2": "2 48274  41.4617 215.3353 0005557  42.7607 317.3663 15.61262838221916"
  }
]
